1 44922U 20001J   23336.59234979  .00004243  00000-0  30351-3 0  9997
2 44922  53.0556 104.0934 0001475 101.9894 258.1260 15.06407125215033
1 44922U 20001J   23337.38852617  .00003502  00000-0  25392-3 0  9996
2 44922  53.0562 100.5221 0001723 115.3923 244.7245 15.06389599215159
1 44922U 20001J   23337.58757123  .00001930  00000-0  14849-3 0  9992
2 44922  53.0558  99.6297 0001369  99.1156 260.9988 15.06385716215182
1 44922U 20001J   23337.58757123  .00001930  00000-0  14849-3 0  9992
2 44922  53.0558  99.6297 0001369  99.1156 260.9988 15.06385716215182
1 44922U 20001J   23338.31738186 -.00003224  00000-0 -19765-3 0  9994
2 44922  53.0550  96.3512 0001498  85.1250 274.9910 15.06400465215292
1 44922U 20001J   23338.51642490 -.00000384  00000-0 -68539-5 0  9997
2 44922  53.0564  95.4579 0001357  87.9617 272.1528 15.06401846215324
1 44922U 20001J   23339.51162786  .00001934  00000-0  14874-3 0  9994
2 44922  53.0560  90.9862 0001412 119.3526 240.7604 15.06391847215477
1 44922U 20001J   23339.71066964  .00001675  00000-0  13130-3 0  9993
2 44922  53.0564  90.0940 0001059 107.7125 252.3979 15.06392037215502
1 44922U 20001J   23339.71066964  .00001675  00000-0  13130-3 0  9993
2 44922  53.0564  90.0940 0001059 107.7125 252.3979 15.06392037215502
1 44922U 20001J   23341.50202866  .00001471  00000-0  11763-3 0  9990
2 44922  53.0559  82.0531 0001235  77.3121 282.8006 15.06399263215773
1 44922U 20001J   23341.50202866  .00001471  00000-0  11763-3 0  9990
2 44922  53.0559  82.0531 0001235  77.3121 282.8006 15.06399263215773
1 44922U 20001J   23342.49722100  .00001173  00000-0  97614-4 0  9996
2 44922  53.0557  77.5835 0001309  97.7850 262.3287 15.06409563215920
1 44922U 20001J   23342.49722100  .00001173  00000-0  97614-4 0  9996
2 44922  53.0557  77.5835 0001309  97.7850 262.3287 15.06409563215920
1 44922U 20001J   23342.69625881  .00001302  00000-0  10625-3 0  9996
2 44922  53.0558  76.6897 0001324  99.6224 260.4915 15.06410856215959
1 44922U 20001J   23343.49242942 -.00000746  00000-0 -31213-4 0  9998
2 44922  53.0563  73.1113 0001533 119.4119 240.7023 15.06398848216075
1 44922U 20001J   23343.49242942 -.00000746  00000-0 -31213-4 0  9998
2 44922  53.0563  73.1113 0001533 119.4119 240.7023 15.06398848216075
1 44922U 20001J   23343.69147840  .00000385  00000-0  44751-4 0  9999
2 44922  53.0565  72.2203 0001483 106.2121 253.9031 15.06383637216107
1 44922U 20001J   23343.69147840  .00000385  00000-0  44751-4 0  9999
2 44922  53.0565  72.2203 0001483 106.2121 253.9031 15.06383637216107
1 44922U 20001J   23344.22224089 -.00001362  00000-0 -72576-4 0  9994
2 44922  53.0562  69.8419 0001234  98.7000 261.4129 15.06408734216186
1 44922U 20001J   23344.55396905 -.00000563  00000-0 -18932-4 0  9995
2 44922  53.0563  68.3541 0001241  98.9582 261.1548 15.06411155216231
1 44922U 20001J   23345.48283237 -.00000057  00000-0  15034-4 0  9998
2 44922  53.0563  64.1869 0001181  96.0608 264.0516 15.06396940216375
1 44922U 20001J   23345.54917953 -.00000081  00000-0  13481-4 0  9995
2 44922  53.0561  63.8890 0001144  88.0813 272.0307 15.06397101216389
1 44922U 20001J   23346.47802658  .00001027  00000-0  87794-4 0  9991
2 44922  53.0557  59.7206 0001224  79.5581 280.5546 15.06404512216525
1 44922U 20001J   23346.47802658  .00001027  00000-0  87794-4 0  9991
2 44922  53.0557  59.7206 0001224  79.5581 280.5546 15.06404512216525
1 44922U 20001J   23347.47324035  .00000518  00000-0  53702-4 0  9996
2 44922  53.0551  55.2558 0001448  64.9291 295.1848 15.06389499216673
1 44922U 20001J   23347.47324035  .00000518  00000-0  53702-4 0  9996
2 44922  53.0551  55.2558 0001448  64.9291 295.1848 15.06389499216673
1 44922U 20001J   23348.46842781  .00001456  00000-0  11663-3 0  9990
2 44922  53.0562  50.7854 0001397  97.0493 263.0655 15.06406226216823
1 44922U 20001J   23348.46842781  .00001456  00000-0  11663-3 0  9990
2 44922  53.0562  50.7854 0001397  97.0493 263.0655 15.06406226216823
1 44922U 20001J   23349.46364701 -.00000304  00000-0 -15131-5 0  9991
2 44922  53.0566  46.3121 0001347  98.3487 261.7654 15.06389300216970
1 44922U 20001J   23349.46364701 -.00000304  00000-0 -15131-5 0  9991
2 44922  53.0566  46.3121 0001347  98.3487 261.7654 15.06389300216970
1 44922U 20001J   23350.45883734 -.00000044  00000-0  15943-4 0  9994
2 44922  53.0561  41.8431 0001225  85.0390 275.0739 15.06410511217129
1 44922U 20001J   23350.45883734 -.00000044  00000-0  15943-4 0  9994
2 44922  53.0561  41.8431 0001225  85.0390 275.0739 15.06410511217129
1 44922U 20001J   23351.45406589  .00005253  00000-0  37165-3 0  9999
2 44922  53.0573  37.3800 0001814  58.3327 301.7838 15.06361423217279
1 44922U 20001J   23351.45406589  .00005253  00000-0  37165-3 0  9999
2 44922  53.0573  37.3800 0001814  58.3327 301.7838 15.06361423217279
1 44922U 20001J   23352.38290071  .00000905  00000-0  79634-4 0  9996
2 44922  53.0556  33.2110 0001287  80.7590 279.3544 15.06408295217413
1 44922U 20001J   23352.38290071  .00000905  00000-0  79634-4 0  9996
2 44922  53.0556  33.2110 0001287  80.7590 279.3544 15.06408295217413
1 44922U 20001J   23353.37811828  .00000522  00000-0  53975-4 0  9990
2 44922  53.0545  28.7455 0001258  91.4178 268.6955 15.06390515217569
1 44922U 20001J   23353.37811828  .00000522  00000-0  53975-4 0  9990
2 44922  53.0545  28.7455 0001258  91.4178 268.6955 15.06390515217569
1 44922U 20001J   23354.30696856  .00001228  00000-0  10128-3 0  9992
2 44922  53.0558  24.5749 0001360  94.1295 265.9850 15.06405703217703
1 44922U 20001J   23354.30696856  .00001228  00000-0  10128-3 0  9992
2 44922  53.0558  24.5749 0001360  94.1295 265.9850 15.06405703217703
1 44922U 20001J   23355.36852613  .00003634  00000-0  26275-3 0  9997
2 44922  53.0575  19.8086 0001523  89.4634 270.6530 15.06393163217869
1 44922U 20001J   23355.36852613  .00003634  00000-0  26275-3 0  9997
2 44922  53.0575  19.8086 0001523  89.4634 270.6530 15.06393163217869
1 44922U 20001J   23355.96563685  .00001544  00000-0  12249-3 0  9995
2 44922  53.0559  17.1248 0001345  90.4897 269.6247 15.06410627217955
1 44922U 20001J   23356.29736515  .00004610  00000-0  32804-3 0  9992
2 44922  53.0571  15.6441 0001633 106.9409 253.1759 15.06417884218004
1 44922U 20001J   23356.29736515  .00004610  00000-0  32804-3 0  9992
2 44922  53.0571  15.6441 0001633 106.9409 253.1759 15.06417884218004
1 44922U 20001J   23357.35892468 -.00003058  00000-0 -18656-3 0  9996
2 44922  53.0552  10.8669 0001383  92.8099 267.3048 15.06390741218169
1 44922U 20001J   23357.35892468 -.00003058  00000-0 -18656-3 0  9996
2 44922  53.0552  10.8669 0001383  92.8099 267.3048 15.06390741218169
1 44922U 20001J   23358.42047781  .00003002  00000-0  22033-3 0  9996
2 44922  53.0553   6.1020 0001494  87.6915 272.4244 15.06398997218325
1 44922U 20001J   23358.42047781  .00003002  00000-0  22033-3 0  9996
2 44922  53.0553   6.1020 0001494  87.6915 272.4244 15.06398997218325
1 44922U 20001J   23359.01760880  .00002884  00000-0  21249-3 0  9999
2 44922  53.0550   3.4227 0001568  87.3672 272.7497 15.06387472218419
1 44922U 20001J   23359.28299689  .00003356  00000-0  24414-3 0  9994
2 44922  53.0552   2.2345 0001607  81.8848 278.2323 15.06391534218454
1 44922U 20001J   23360.14549589  .00006631  00000-0  46345-3 0  9994
2 44922  53.0551 358.3603 0001495  89.2234 270.8926 15.06414079218582
1 44922U 20001J   23360.27818873  .00007557  00000-0  52544-3 0  9999
2 44922  53.0554 357.7658 0001584  88.2807 271.8363 15.06416300218600
1 44922U 20001J   23361.14069957  .00001391  00000-0  11222-3 0  9995
2 44922  53.0554 353.8922 0001485 106.0222 254.0930 15.06403247218734
1 44922U 20001J   23361.20704727  .00000999  00000-0  85958-4 0  9994
2 44922  53.0551 353.5947 0001522 104.6818 255.4340 15.06401443218749
1 44922U 20001J   23362.13590358  .00002223  00000-0  16806-3 0  9997
2 44922  53.0542 349.4246 0001387  97.4897 262.6249 15.06400949218883
1 44922U 20001J   23362.20224775  .00002745  00000-0  20305-3 0  9990
2 44922  53.0546 349.1270 0001551  98.5674 261.5491 15.06406350218899
1 44922U 20001J   23363.13111104  .00002159  00000-0  16383-3 0  9994
2 44922  53.0545 344.9548 0001670 110.3853 249.7315 15.06395796219034
1 44922U 20001J   23363.33015275  .00001735  00000-0  13538-3 0  9996
2 44922  53.0543 344.0601 0001505 110.8564 249.2586 15.06394248219063
1 44922U 20001J   23364.32535736  .00005854  00000-0  41154-3 0  9996
2 44922  53.0553 339.5950 0001586 101.8015 258.3152 15.06403469219213
1 44922U 20001J   23364.32535736  .00005854  00000-0  41154-3 0  9996
2 44922  53.0553 339.5950 0001586 101.8015 258.3152 15.06403469219213
